[{"OBJECT_NAME":"AEROCUBE 7","OBJECT_ID":"2015-058C","EPOCH":"2026-03-09T17:13:01.759008","MEAN_MOTION":14.94898912,"ECCENTRICITY":0.01206065,"INCLINATION":64.7631,"RA_OF_ASC_NODE":196.1788,"ARG_OF_PERICENTER":101.5653,"MEAN_ANOMALY":259.9029,"EPHEMERIS_TYPE":0,"CLASSIFICATION_TYPE":"U","NORAD_CAT_ID":40966,"ELEMENT_SET_NO":999,"REV_AT_EPOCH":35108,"BSTAR":0.00047976725,"MEAN_MOTION_DOT":5.894e-5,"MEAN_MOTION_DDOT":0},{"OBJECT_NAME":"SCS-01 L","OBJECT_ID":"2025-100L","EPOCH":"2026-03-09T23:34:47.606016","MEAN_MOTION":15.20947264,"ECCENTRICITY":0.00097838,"INCLINATION":97.3734,"RA_OF_ASC_NODE":144.0559,"ARG_OF_PERICENTER":283.1902,"MEAN_ANOMALY":76.8242,"EPHEMERIS_TYPE":0,"CLASSIFICATION_TYPE":"U","NORAD_CAT_ID":63992,"ELEMENT_SET_NO":999,"REV_AT_EPOCH":4553,"BSTAR":0.00095526864,"MEAN_MOTION_DOT":0.0002115,"MEAN_MOTION_DDOT":0}]
